{
    "week": 293,
    "satellites": [
        {
            "Name": "BEIDOU-2 G6 (C02)",
            "Line1": "1 38953U 12059A   24327.57271750 -.00000170  00000+0  00000+0 0  9994",
            "Line2": "2 38953   2.9646  79.1998 0007027 289.8453 343.1864  1.00274170 44172",
            "SatelliteNumber": "38953",
            "Classification": "U",
            "LaunchYear": "12",
            "LaunchNumber": "059",
            "PieceOfLaunch": "A",
            "EpochYear": "24",
            "EpochDay": 327.5727175,
            "FirstDerivativeMeanMotion": -1.7e-06,
            "SecondDerivativeMeanMotion": "00000+0",
            "BSTAR": "00000+0",
            "SetNumber": "999",
            "Inclination": 2.9646,
            "RAAN": 79.1998,
            "Eccentricity": 0.0007027,
            "ArgumentOfPerigee": 289.8453,
            "MeanAnomaly": 343.1864,
            "MeanMotion": 1.0027417,
            "RevolutionNumber": "4417"
        },
        {
            "Name": "BEIDOU-3S IGSO-1S (C31)",
            "Line1": "1 40549U 15019A   24327.38789365 -.00000184  00000+0  00000+0 0  9997",
            "Line2": "2 40549  50.2801 302.3140 0035321 198.5767 157.3186  1.00269614 35334",
            "SatelliteNumber": "40549",
            "Classification": "U",
            "LaunchYear": "15",
            "LaunchNumber": "019",
            "PieceOfLaunch": "A",
            "EpochYear": "24",
            "EpochDay": 327.38789365,
            "FirstDerivativeMeanMotion": -1.84e-06,
            "SecondDerivativeMeanMotion": "00000+0",
            "BSTAR": "00000+0",
            "SetNumber": "999",
            "Inclination": 50.2801,
            "RAAN": 302.314,
            "Eccentricity": 0.0035321,
            "ArgumentOfPerigee": 198.5767,
            "MeanAnomaly": 157.3186,
            "MeanMotion": 1.00269614,
            "RevolutionNumber": "3533"
        },
        {
            "Name": "BEIDOU-3S M2S (C58)",
            "Line1": "1 40748U 15037A   24327.46465624 -.00000074  00000+0  00000+0 0  9994",
            "Line2": "2 40748  55.3597 321.6462 0013142 259.8559 100.0047  1.86229215 63475",
            "SatelliteNumber": "40748",
            "Classification": "U",
            "LaunchYear": "15",
            "LaunchNumber": "037",
            "PieceOfLaunch": "A",
            "EpochYear": "24",
            "EpochDay": 327.46465624,
            "FirstDerivativeMeanMotion": -7.4e-07,
            "SecondDerivativeMeanMotion": "00000+0",
            "BSTAR": "00000+0",
            "SetNumber": "999",
            "Inclination": 55.3597,
            "RAAN": 321.6462,
            "Eccentricity": 0.0013142,
            "ArgumentOfPerigee": 259.8559,
            "MeanAnomaly": 100.0047,
            "MeanMotion": 1.86229215,
            "RevolutionNumber": "6347"
        },
        {
            "Name": "BEIDOU-3S M1S (C57)",
            "Line1": "1 40749U 15037B   24327.20092916 -.00000074  00000+0  00000+0 0  9997",
            "Line2": "2 40749  55.3626 321.6417 0004231 320.2251  39.7527  1.86227626 63475",
            "SatelliteNumber": "40749",
            "Classification": "U",
            "LaunchYear": "15",
            "LaunchNumber": "037",
            "PieceOfLaunch": "B",
            "EpochYear": "24",
            "EpochDay": 327.20092916,
            "FirstDerivativeMeanMotion": -7.4e-07,
            "SecondDerivativeMeanMotion": "00000+0",
            "BSTAR": "00000+0",
            "SetNumber": "999",
            "Inclination": 55.3626,
            "RAAN": 321.6417,
            "Eccentricity": 0.0004231,
            "ArgumentOfPerigee": 320.2251,
            "MeanAnomaly": 39.7527,
            "MeanMotion": 1.86227626,
            "RevolutionNumber": "6347"
        },
        {
            "Name": "BEIDOU-3S IGSO-2S (C56)",
            "Line1": "1 40938U 15053A   24326.81021458 -.00000156  00000+0  00000+0 0  9995",
            "Line2": "2 40938  50.1149 265.5600 0051991 189.2823 354.7020  1.00270171 33611",
            "SatelliteNumber": "40938",
            "Classification": "U",
            "LaunchYear": "15",
            "LaunchNumber": "053",
            "PieceOfLaunch": "A",
            "EpochYear": "24",
            "EpochDay": 326.81021458,
            "FirstDerivativeMeanMotion": -1.56e-06,
            "SecondDerivativeMeanMotion": "00000+0",
            "BSTAR": "00000+0",
            "SetNumber": "999",
            "Inclination": 50.1149,
            "RAAN": 265.56,
            "Eccentricity": 0.0051991,
            "ArgumentOfPerigee": 189.2823,
            "MeanAnomaly": 354.702,
            "MeanMotion": 1.00270171,
            "RevolutionNumber": "3361"
        },
        {
            "Name": "BEIDOU-2 IGSO-6 (C13)",
            "Line1": "1 41434U 16021A   24327.66668920 -.00000178  00000+0  00000+0 0  9992",
            "Line2": "2 41434  59.4143  43.7576 0055033 225.2110 129.6209  1.00284349 31740",
            "SatelliteNumber": "41434",
            "Classification": "U",
            "LaunchYear": "16",
            "LaunchNumber": "021",
            "PieceOfLaunch": "A",
            "EpochYear": "24",
            "EpochDay": 327.6666892,
            "FirstDerivativeMeanMotion": -1.78e-06,
            "SecondDerivativeMeanMotion": "00000+0",
            "BSTAR": "00000+0",
            "SetNumber": "999",
            "Inclination": 59.4143,
            "RAAN": 43.7576,
            "Eccentricity": 0.0055033,
            "ArgumentOfPerigee": 225.211,
            "MeanAnomaly": 129.6209,
            "MeanMotion": 1.00284349,
            "RevolutionNumber": "3174"
        },
        {
            "Name": "BEIDOU-2 G7 (C03)",
            "Line1": "1 41586U 16037A   24327.82235275 -.00000347  00000+0  00000+0 0  9996",
            "Line2": "2 41586   1.7599  67.1024 0006920 339.3010  62.4200  1.00266582 31056",
            "SatelliteNumber": "41586",
            "Classification": "U",
            "LaunchYear": "16",
            "LaunchNumber": "037",
            "PieceOfLaunch": "A",
            "EpochYear": "24",
            "EpochDay": 327.82235275,
            "FirstDerivativeMeanMotion": -3.47e-06,
            "SecondDerivativeMeanMotion": "00000+0",
            "BSTAR": "00000+0",
            "SetNumber": "999",
            "Inclination": 1.7599,
            "RAAN": 67.1024,
            "Eccentricity": 0.000692,
            "ArgumentOfPerigee": 339.301,
            "MeanAnomaly": 62.42,
            "MeanMotion": 1.00266582,
            "RevolutionNumber": "3105"
        },
        {
            "Name": "BEIDOU-3 M1 (C19)",
            "Line1": "1 43001U 17069A   24327.27658118 -.00000015  00000+0  00000+0 0  9992",
            "Line2": "2 43001  56.1951  82.0022 0008066 298.5200  61.3852  1.86231322 47955",
            "SatelliteNumber": "43001",
            "Classification": "U",
            "LaunchYear": "17",
            "LaunchNumber": "069",
            "PieceOfLaunch": "A",
            "EpochYear": "24",
            "EpochDay": 327.27658118,
            "FirstDerivativeMeanMotion": -1.5e-07,
            "SecondDerivativeMeanMotion": "00000+0",
            "BSTAR": "00000+0",
            "SetNumber": "999",
            "Inclination": 56.1951,
            "RAAN": 82.0022,
            "Eccentricity": 0.0008066,
            "ArgumentOfPerigee": 298.52,
            "MeanAnomaly": 61.3852,
            "MeanMotion": 1.86231322,
            "RevolutionNumber": "4795"
        },
        {
            "Name": "BEIDOU-3 M2 (C20)",
            "Line1": "1 43002U 17069B   24327.75111961 -.00000016  00000+0  00000+0 0  9997",
            "Line2": "2 43002  56.1943  82.0230 0005651 328.9605  30.9928  1.86230940 47953",
            "SatelliteNumber": "43002",
            "Classification": "U",
            "LaunchYear": "17",
            "LaunchNumber": "069",
            "PieceOfLaunch": "B",
            "EpochYear": "24",
            "EpochDay": 327.75111961,
            "FirstDerivativeMeanMotion": -1.6e-07,
            "SecondDerivativeMeanMotion": "00000+0",
            "BSTAR": "00000+0",
            "SetNumber": "999",
            "Inclination": 56.1943,
            "RAAN": 82.023,
            "Eccentricity": 0.0005651,
            "ArgumentOfPerigee": 328.9605,
            "MeanAnomaly": 30.9928,
            "MeanMotion": 1.8623094,
            "RevolutionNumber": "4795"
        },
        {
            "Name": "BEIDOU-3 M7 (C27)",
            "Line1": "1 43107U 18003A   24326.96184143 -.00000076  00000+0  00000+0 0  9992",
            "Line2": "2 43107  54.8185 322.1849 0002303  62.5354 297.4970  1.86232485 46692",
            "SatelliteNumber": "43107",
            "Classification": "U",
            "LaunchYear": "18",
            "LaunchNumber": "003",
            "PieceOfLaunch": "A",
            "EpochYear": "24",
            "EpochDay": 326.96184143,
            "FirstDerivativeMeanMotion": -7.6e-07,
            "SecondDerivativeMeanMotion": "00000+0",
            "BSTAR": "00000+0",
            "SetNumber": "999",
            "Inclination": 54.8185,
            "RAAN": 322.1849,
            "Eccentricity": 0.0002303,
            "ArgumentOfPerigee": 62.5354,
            "MeanAnomaly": 297.497,
            "MeanMotion": 1.86232485,
            "RevolutionNumber": "4669"
        }
    ]
}